NORAD_CAT_ID,OBJECT_NAME,OBJECT_TYPE,EPOCH,MEAN_MOTION,ECCENTRICITY,INCLINATION,RA_OF_ASC_NODE,ARG_OF_PERICENTER,MEAN_ANOMALY,BSTAR,MEAN_MOTION_DOT,MEAN_MOTION_DDOT,TLE_LINE0,TLE_LINE1,TLE_LINE2,SEMIMAJOR_AXIS,PERIOD,APOGEE,PERIGEE,DECAYED
56493.0,STARLINK-5841,PAYLOAD,2023-05-16 16:00:00,15.9089275,0.0025227,69.9992,229.0508,159.1724,317.0943,-0.0028989,-0.00936059,0.00026449,0 STARLINK-5841,1 56493U 23064AX  23136.66667824 -.00936059  26449-3 -28989-2 0  9992,2 56493  69.9992 229.0508 0025227 159.1724 317.0943 15.90892750  1303,6677.92,90.515,316.632,282.939,0.0
56493.0,STARLINK-5841,PAYLOAD,2023-05-16 22:00:00,15.90419052,0.0022963,69.999,228.3262,159.4962,307.9317,-0.003129,-0.00980795,0.00028701,0 STARLINK-5841,1 56493U 23064AX  23136.91667824 -.00980795  28701-3 -31290-2 0  9998,2 56493  69.9990 228.3262 0022963 159.4962 307.9317 15.90419052  1337,6679.246,90.542,316.449,285.774,0.0
56493.0,STARLINK-5841,PAYLOAD,2023-05-17 22:00:00,15.88467317,0.0013676,69.9984,225.4325,163.5028,264.1817,-0.0035452,-0.00991749,0.00028745,0 STARLINK-5841,1 56493U 23064AX  23137.91667824 -.00991749  28745-3 -35452-2 0  9992,2 56493  69.9984 225.4325 0013676 163.5028 264.1817 15.88467317  1498,6684.716,90.653,315.723,297.439,0.0
56493.0,STARLINK-5841,PAYLOAD,2023-05-18 14:00:01,15.87160152,0.0007788,69.9987,223.5078,172.8431,104.435,-0.0037392,-0.00887893,0.0,0 STARLINK-5841,1 56493U 23064AX  23138.58334491 -.00887893  00000-0 -37392-2 0  9997,2 56493  69.9987 223.5078 0007788 172.8431 104.4350 15.87160152  1600,6688.386,90.728,315.46,305.042,0.0
56493.0,STARLINK-5841,PAYLOAD,2023-05-18 22:00:00,15.86519828,0.0005225,69.9984,222.5468,186.9292,193.97,-0.0040024,-0.0091583,0.0,0 STARLINK-5841,1 56493U 23064AX  23138.91667824 -.00915830  00000-0 -40024-2 0  9992,2 56493  69.9984 222.5468 0005225 186.9292 193.9700 15.86519828  1658,6690.186,90.765,315.546,308.555,0.0
56493.0,STARLINK-5841,PAYLOAD,2023-05-19 06:00:00,15.85883696,0.0003631,69.9989,221.5873,211.8672,271.8651,-0.0041648,-0.00922036,0.0,0 STARLINK-5841,1 56493U 23064AX  23139.25001157 -.00922036  00000-0 -41648-2 0  9990,2 56493  69.9989 221.5873 0003631 211.8672 271.8651 15.85883696  1715,6691.975,90.801,316.269,311.41,0.0
56493.0,STARLINK-5841,PAYLOAD,2023-05-19 22:00:01,15.84567134,0.0003447,69.9992,219.6711,264.4162,62.7281,-0.0043948,-0.00913627,0.0,0 STARLINK-5841,1 56493U 23064AX  23139.91668981 -.00913627  00000-0 -43948-2 0  9998,2 56493  69.9992 219.6711 0003447 264.4162  62.7281 15.84567134  1307,6695.681,90.877,319.854,315.238,0.0
56493.0,STARLINK-5841,PAYLOAD,2023-05-20 06:00:00,15.83900212,0.0003606,69.9997,218.7147,270.5042,157.072,-0.0043857,-0.00885965,0.0,0 STARLINK-5841,1 56493U 23064AX  23140.25001157 -.00885965  00000-0 -43857-2 0  9995,2 56493  69.9997 218.7147 0003606 270.5042 157.0720 15.83900212  1861,6697.56,90.915,321.84,317.01,0.0
56493.0,STARLINK-5841,PAYLOAD,2023-05-20 10:15:50,15.8380068,0.0003836,69.9987,218.2021,270.8407,89.2356,-0.000534,-0.00117253,0.0,0 STARLINK-5841,1 56493U 23064AX  23140.42766319 -.00117253  00000-0 -53400-3 0  9996,2 56493  69.9987 218.2021 0003836 270.8407  89.2356 15.83800680  1891,6697.841,90.921,322.275,317.137,0.0
56493.0,STARLINK-5841,PAYLOAD,2023-05-21 06:00:00,15.81992577,0.0003892,69.9982,215.8469,269.0419,95.3034,-0.0052586,-0.00962248,0.0,0 STARLINK-5841,1 56493U 23064AX  23141.25001157 -.00962248  00000-0 -52586-2 0  9995,2 56493  69.9982 215.8469 0003892 269.0419  95.3034 15.81992577  2022,6702.943,91.024,327.417,322.2,0.0
56493.0,STARLINK-5841,PAYLOAD,2023-05-21 14:00:01,15.81280428,0.0003636,69.9978,214.8925,276.1119,185.618,-0.0048345,-0.00865331,0.0,0 STARLINK-5841,1 56493U 23064AX  23141.58334491 -.00865331  00000-0 -48345-2 0  9994,2 56493  69.9978 214.8925 0003636 276.1119 185.6180 15.81280428  1305,6704.956,91.065,329.259,324.383,0.0
56493.0,STARLINK-5841,PAYLOAD,2023-05-21 22:00:00,15.80635909,0.0003458,69.9974,213.9395,270.0528,288.2604,-0.0051528,-0.0089227,0.0,0 STARLINK-5841,1 56493U 23064AX  23141.91667824 -.00892270  00000-0 -51528-2 0  9999,2 56493  69.9974 213.9395 0003458 270.0528 288.2604 15.80635909  2131,6706.778,91.103,330.962,326.324,0.0
56493.0,STARLINK-5841,PAYLOAD,2023-05-22 14:00:01,15.79330806,0.0003451,69.9977,212.0367,273.9356,115.1935,-0.0053646,-0.00876559,0.0,0 STARLINK-5841,1 56493U 23064AX  23142.58334491 -.00876559  00000-0 -53646-2 0  9999,2 56493  69.9977 212.0367 0003451 273.9356 115.1935 15.79330806  2239,6710.473,91.178,334.653,330.022,0.0
56493.0,STARLINK-5841,PAYLOAD,2023-05-22 22:00:00,15.7866587,0.0003298,69.9974,211.0867,270.5098,212.8632,-0.0054644,-0.00867177,0.0,0 STARLINK-5841,1 56493U 23064AX  23142.91667824 -.00867177  00000-0 -54644-2 0  9990,2 56493  69.9974 211.0867 0003298 270.5098 212.8632 15.78665870  1302,6712.357,91.216,336.435,332.008,0.0
56493.0,STARLINK-5841,PAYLOAD,2023-05-23 06:00:00,15.78073965,0.0003354,69.9976,210.1381,266.8521,309.9547,-0.0062429,-0.00954641,0.0,0 STARLINK-5841,1 56493U 23064AX  23143.25001157 -.00954641  00000-0 -62429-2 0  9992,2 56493  69.9976 210.1381 0003354 266.8521 309.9547 15.78073965  2343,6714.035,91.25,338.152,333.648,0.0
56493.0,STARLINK-5841,PAYLOAD,2023-05-23 22:00:00,15.76706449,0.000353,69.9968,208.2426,271.099,130.2899,-0.005924,-0.00861684,0.0,0 STARLINK-5841,1 56493U 23064AX  23143.91667824 -.00861684  00000-0 -59240-2 0  9995,2 56493  69.9968 208.2426 0003530 271.0990 130.2899 15.76706449  2440,6717.917,91.33,342.153,337.41,0.0
56493.0,STARLINK-5841,PAYLOAD,2023-05-24 14:00:01,15.75413644,0.0003459,69.9969,206.3508,274.2391,308.6416,-0.0063423,-0.00870397,0.0,0 STARLINK-5841,1 56493U 23064AX  23144.58335648 -.00870397  00000-0 -63423-2 0  9994,2 56493  69.9969 206.3508 0003459 274.2391 308.6416 15.75413644  2550,6721.591,91.405,345.781,341.131,0.0
56493.0,STARLINK-5841,PAYLOAD,2023-05-24 22:00:00,15.74745242,0.0003551,69.9969,205.4063,268.6152,43.7494,-0.0063996,-0.008546,0.0,0 STARLINK-5841,1 56493U 23064AX  23144.91667824 -.00854600  00000-0 -63996-2 0  9999,2 56493  69.9969 205.4063 0003551 268.6152  43.7494 15.74745242  1307,6723.493,91.443,347.746,342.971,0.0
56493.0,STARLINK-5841,PAYLOAD,2023-05-25 04:00:01,15.74317903,0.0003653,69.9973,204.6987,266.0916,22.9562,-0.0072108,-0.0093601,0.0,0 STARLINK-5841,1 56493U 23064AX  23145.16668981 -.00936010  00000-0 -72108-2 0  9993,2 56493  69.9973 204.6987 0003653 266.0916  22.9562 15.74317903  2643,6724.71,91.468,349.031,344.118,0.0
56493.0,STARLINK-5841,PAYLOAD,2023-05-25 12:00:00,15.73994573,0.0004008,69.9972,203.7556,271.8664,105.4264,0.00089475,0.00129467,0.0,0 STARLINK-5841,1 56493U 23064AX  23145.50001157  .00129467  00000-0  89475-3 0  9991,2 56493  69.9972 203.7556 0004008 271.8664 105.4264 15.73994573  2697,6725.631,91.487,350.191,344.8,0.0
56493.0,STARLINK-5841,PAYLOAD,2023-05-25 14:00:01,15.74002282,0.0004079,69.9972,203.5197,272.515,216.8411,0.0010815,0.00157102,0.0,0 STARLINK-5841,1 56493U 23064AX  23145.58334491  .00157102  00000-0  10815-2 0  9997,2 56493  69.9972 203.5197 0004079 272.5150 216.8411 15.74002282  1308,6725.609,91.487,350.217,344.73,0.0
56493.0,STARLINK-5841,PAYLOAD,2023-05-25 22:00:00,15.74085029,0.0004107,69.997,202.5767,268.9319,308.7216,0.00086394,0.00125431,0.0,0 STARLINK-5841,1 56493U 23064AX  23145.91667824  .00125431  00000-0  86394-3 0  9999,2 56493  69.9970 202.5767 0004107 268.9319 308.7216 15.74085029  1300,6725.373,91.482,350.0,344.476,0.0
56493.0,STARLINK-5841,PAYLOAD,2023-05-26 06:00:00,15.72198454,0.0003752,69.9971,201.6378,266.2191,36.4722,-0.0080558,-0.00967745,0.0,0 STARLINK-5841,1 56493U 23064AX  23146.25001157 -.00967745  00000-0 -80558-2 0  9997,2 56493  69.9971 201.6378 0003752 266.2191  36.4722 15.72198454  2812,6730.752,91.591,355.143,350.092,0.0
56493.0,STARLINK-5841,PAYLOAD,2023-05-26 14:00:01,15.71503985,0.0003697,69.9967,200.6974,274.44,113.8897,-0.0075188,-0.00871775,0.0,0 STARLINK-5841,1 56493U 23064AX  23146.58334491 -.00871775  00000-0 -75188-2 0  9993,2 56493  69.9967 200.6974 0003697 274.4400 113.8897 15.71503985  1304,6732.735,91.632,357.089,352.111,0.0
56493.0,STARLINK-5841,PAYLOAD,2023-05-26 22:00:01,15.7082142,0.0003557,69.997,199.7584,269.9423,203.3162,-0.0073812,-0.00835153,0.0,0 STARLINK-5841,1 56493U 23064AX  23146.91668981 -.00835153  00000-0 -73812-2 0  9996,2 56493  69.9970 199.7584 0003557 269.9423 203.3162 15.70821420  2927,6734.685,91.672,358.946,354.155,0.0
56493.0,STARLINK-5841,PAYLOAD,2023-05-27 06:00:02,15.70047262,0.0003674,69.9978,198.8203,269.0681,288.2659,-0.0022862,-0.00267923,0.0,0 STARLINK-5841,1 56493U 23064AX  23147.25002315 -.00267923  00000-0 -22862-2 0  9990,2 56493  69.9978 198.8203 0003674 269.0681 288.2659 15.70047262  2972,6736.899,91.717,361.239,356.289,0.0
56493.0,STARLINK-5841,PAYLOAD,2023-05-27 14:00:01,15.69856347,0.000379,69.9981,197.8829,273.7469,6.8881,0.00065266,0.00078789,0.0,0 STARLINK-5841,1 56493U 23064AX  23147.58334491  .00078789  00000-0  65266-3 0  9993,2 56493  69.9981 197.8829 0003790 273.7469   6.8881 15.69856347  3022,6737.445,91.728,361.863,356.757,0.0
56493.0,STARLINK-5841,PAYLOAD,2023-05-27 22:00:00,15.69873832,0.0003746,69.9987,196.9458,268.0798,95.8532,0.00067997,0.00082187,0.0,0 STARLINK-5841,1 56493U 23064AX  23147.91667824  .00082187  00000-0  67997-3 0  9999,2 56493  69.9987 196.9458 0003746 268.0798  95.8532 15.69873832  1307,6737.395,91.727,361.784,356.736,0.0
56493.0,STARLINK-5841,PAYLOAD,2023-05-28 06:00:00,15.69967439,0.0003806,69.999,196.0088,267.8139,179.4255,-0.00012667,-0.00015445,0.0,0 STARLINK-5841,1 56493U 23064AX  23148.25001157 -.00015445  00000-0 -12667-3 0  9997,2 56493  69.9990 196.0088 0003806 267.8139 179.4255 15.69967439  3124,6737.127,91.722,361.556,356.428,0.0
56493.0,STARLINK-5841,PAYLOAD,2023-05-28 22:00:00,15.69879989,0.0003654,69.9993,194.1341,263.7315,350.2927,0.00044379,0.00053395,0.0,0 STARLINK-5841,1 56493U 23064AX  23148.91667824  .00053395  00000-0  44379-3 0  9998,2 56493  69.9993 194.1341 0003654 263.7315 350.2927 15.69879989  1305,6737.377,91.727,361.704,356.781,0.0
